COMMENT,ORIGINATOR,NORAD_CAT_ID,OBJECT_NAME,OBJECT_TYPE,CLASSIFICATION_TYPE,INTLDES,EPOCH,EPOCH_MICROSECONDS,MEAN_MOTION,ECCENTRICITY,INCLINATION,RA_OF_ASC_NODE,ARG_OF_PERICENTER,MEAN_ANOMALY,EPHEMERIS_TYPE,ELEMENT_SET_NO,REV_AT_EPOCH,BSTAR,MEAN_MOTION_DOT,MEAN_MOTION_DDOT,FILE,TLE_LINE0,TLE_LINE1,TLE_LINE2,OBJECT_ID,OBJECT_NUMBER,SEMIMAJOR_AXIS,PERIOD,APOGEE,PERIGEE
"GENERATED VIA SPACETRACK.ORG API","JSPOC","14998","COSMOS 1559","PAYLOAD","U","84052A","2016-01-11 20:51:12","634272","12.43930685","0.0025463","74.0114","153.7454","13.5678","155.0625","0","999","43608","-8.5628e-05","-2.8e-07","0","1979129","0 COSMOS 1559","1 14998U 84052A   16011.86889623 -.00000028  00000-0 -85628-4 0  9994","2 14998  74.0114 153.7454 0025463  13.5678 155.0625 12.43930685436085","1984-052A","14998","7868.121","115.762","1510.021","1469.951"
"GENERATED VIA SPACETRACK.ORG API","JSPOC","27061","SL-14 R/B","ROCKET BODY","U","01058G","2016-01-11 20:51:14","256","12.53926545","0.0042636","82.5433","178.5186","325.9317","191.3885","0","999","64264","-0.00010139","-6e-08","0","1979070","0 SL-14 R/B","1 27061U 01058G   16011.86891204 -.00000006  00000-0 -10139-3 0  9992","2 27061  82.5433 178.5186 0042636 325.9317 191.3885 12.53926545642649","2001-058G","27061","7826.251","114.839","1481.484","1414.748"
"GENERATED VIA SPACETRACK.ORG API","JSPOC","38708","BKA 2","PAYLOAD","U","12039B","2016-01-11 20:51:16","519680","15.20364653","0.0001682","97.428","287.3698","78.7622","323.3253","0","999","19266","6.9699e-05","1.449e-05","0","1979167","0 BKA 2","1 38708U 12039B   16011.86894120  .00001449  00000-0  69699-4 0  9999","2 38708  97.4280 287.3698 0001682  78.7622 323.3253 15.20364653192660","2012-039B","38708","6882.876","94.714","505.899","503.584"
"GENERATED VIA SPACETRACK.ORG API","JSPOC","36799","TISAT 1","PAYLOAD","U","10035E","2016-01-11 20:51:29","571264","14.89349226","0.0011712","98.0221","119.8869","239.2882","120.7181","0","999","29780","0.0001703","1.559e-05","0","1979502","0 TISAT 1","1 36799U 10035E   16011.86909226 +.00001559 +00000-0 +17030-3 0  9998","2 36799 098.0221 119.8869 0011712 239.2882 120.7181 14.89349226297800","2010-035E","36799","6978.104","96.686","608.142","591.796"
"GENERATED VIA SPACETRACK.ORG API","JSPOC","11699","SL-8 R/B","ROCKET BODY","U","80012J","2016-01-11 20:51:38","169792","12.22599277","0.0142498","74.0157","135.2618","278.3179","253.1798","0","999","60283","-0.0003454","-5.4e-07","0","1979502","0 SL-8 R/B","1 11699U 80012J   16011.86919178 -.00000054 +00000-0 -34540-3 0  9995","2 11699 074.0157 135.2618 0142498 278.3179 253.1798 12.22599277602833","1980-012J","11699","7959.377","117.781","1694.661","1467.822"
"GENERATED VIA SPACETRACK.ORG API","JSPOC","19904","COSMOS 2010","PAYLOAD","U","89025C","2016-01-11 20:51:39","655008","12.54017538","0.0029972","74.0084","234.2154","62.9048","65.2454","0","999","14041","0.00015359","9e-08","0","1979502","0 COSMOS 2010","1 19904U 89025C   16011.86920897 +.00000009 +00000-0 +15359-3 0  9990","2 19904 074.0084 234.2154 0029972 062.9048 065.2454 12.54017538140419","1989-025C","19904","7825.872","114.830","1471.193","1424.281"
"GENERATED VIA SPACETRACK.ORG API","JSPOC","25695","SS-18 R/B","ROCKET BODY","U","99021C","2016-01-11 20:51:47","752416","13.71885225","0.0535214","64.5594","327.4526","129.8193","254.4339","0","999","83731","1.4437e-05","-7.1e-07","0","1979502","0 SS-18 R/B","1 25695U 99021C   16011.86930269 -.00000071 +00000-0 +14437-4 0  9992","2 25695 064.5594 327.4526 0535214 129.8193 254.4339 13.71885225837318","1999-021C","25695","7370.947","104.965","1387.316","598.309"
"GENERATED VIA SPACETRACK.ORG API","JSPOC","8197","KIKU 1 (ETS 1)","PAYLOAD","U","75082A","2016-01-11 20:51:52","920864","13.59495552","0.0085804","46.9899","47.8819","350.8223","61.2381","0","999","411","1.6682e-05","-1.14e-06","0","1979502","0 KIKU 1 (ETS 1)","1  8197U 75082A   16011.86936251 -.00000114 +00000-0 +16682-4 0  9990","2  8197 046.9899 047.8819 0085804 350.8223 061.2381 13.59495552004112","1975-082A","8197","7415.662","105.921","1101.157","973.898"
"GENERATED VIA SPACETRACK.ORG API","JSPOC","40087","ORBCOMM FM 107","PAYLOAD","U","14040B","2016-01-11 20:51:53","224992","14.53022999","0.0024723","47.0076","4.1079","13.4045","346.749","0","999","7956","7.6392e-05","1.52e-06","0","1979502","0 ORBCOMM FM 107","1 40087U 14040B   16011.86936603 +.00000152 +00000-0 +76392-4 0  9997","2 40087 047.0076 004.1079 0024723 013.4045 346.7490 14.53022999079565","2014-040B","40087","7093.929","99.103","733.332","698.255"
"GENERATED VIA SPACETRACK.ORG API","JSPOC","41187","ORBCOMM FM 108","PAYLOAD","U","15081J","2016-01-11 20:51:56","525472","14.79245326","0.0028322","47.0007","261.2647","110.881","250.0099","0","999","308","0.0044223","0.00033422","0","1979502","0 ORBCOMM FM 108","1 41187U 15081J   16011.86940423 +.00033422 +00000-0 +44223-2 0  9992","2 41187 047.0007 261.2647 0028322 110.8810 250.0099 14.79245326003084","2015-081J","41187","7009.844","97.346","651.562","611.856"
"GENERATED VIA SPACETRACK.ORG API","JSPOC","15598","SL-8 R/B","ROCKET BODY","U","85022B","2016-01-11 20:51:58","34880","13.76545588","0.0023316","82.9387","135.341","128.5757","355.4283","0","999","54836","6.2244e-05","7.7e-07","0","1979502","0 SL-8 R/B","1 15598U 85022B   16011.86942170 +.00000077 +00000-0 +62244-4 0  9997","2 15598 082.9387 135.3410 0023316 128.5757 355.4283 13.76545588548362","1985-022B","15598","7354.301","104.609","993.313","959.019"
"GENERATED VIA SPACETRACK.ORG API","JSPOC","21302","COSMOS 2146","PAYLOAD","U","91033D","2016-01-11 20:51:59","749056","12.64471092","0.0015974","82.5733","215.7571","54.9713","305.2875","0","999","13794","3.7317e-05","1.8e-07","0","1979502","0 COSMOS 2146","1 21302U 91033D   16011.86944154 +.00000018 +00000-0 +37317-4 0  9998","2 21302 082.5733 215.7571 0015974 054.9713 305.2875 12.64471092137941","1991-033D","21302","7782.681","113.881","1416.978","1392.114"
"GENERATED VIA SPACETRACK.ORG API","JSPOC","40011","HODOYOSHI 4","PAYLOAD","U","14033B","2016-01-11 20:52:13","695744","14.80552032","0.0027185","97.9336","271.3746","164.4576","195.7478","0","999","8446","5.7489e-05","3.9e-06","0","1979137","0 HODOYOSHI 4","1 40011U 14033B   16011.86960296  .00000390  00000-0  57489-4 0  9991","2 40011  97.9336 271.3746 0027185 164.4576 195.7478 14.80552032 84464","2014-033B","40011","7005.719","97.261","646.629","608.539"
"GENERATED VIA SPACETRACK.ORG API","JSPOC","6350","COSMOS 546","PAYLOAD","U","73005A","2016-01-11 20:52:15","523968","15.19597304","0.0014542","50.6466","290.9934","349.5016","10.5641","0","999","36296","8.9101e-06","-1.35e-06","0","1979502","0 COSMOS 546","1  6350U 73005A   16011.86962412 -.00000135 +00000-0 +89101-5 0  9990","2  6350 050.6466 290.9934 0014542 349.5016 010.5641 15.19597304362960","1973-005A","6350","6885.193","94.761","517.071","497.046"
"GENERATED VIA SPACETRACK.ORG API","JSPOC","34942","BREEZE-M R/B","ROCKET BODY","U","09027B","2016-01-11 20:52:21","876960","1.57277557","0.3398516","7.6922","103.9835","275.2463","219.7797","0","999","3823","0","-6.6e-07","0","1979502","0 BREEZE-M R/B","1 34942U 09027B   16011.86969765 -.00000066 +00000-0 +00000-0 0  9998","2 34942 007.6922 103.9835 3398516 275.2463 219.7797 01.57277557038237","2009-027B","34942","31233.741","915.578","35470.442","14240.769"
"GENERATED VIA SPACETRACK.ORG API","JSPOC","41189","ORBCOMM FM 116","PAYLOAD","U","15081L","2016-01-11 20:52:32","965536","14.78685482","0.0029357","47.0027","261.2637","113.2036","247.1205","0","999","308","-0.00031753","-2.582e-05","0","1979502","0 ORBCOMM FM 116","1 41189U 15081L   16011.86982599 -.00002582 +00000-0 -31753-3 0  9994","2 41189 047.0027 261.2637 0029357 113.2036 247.1205 14.78685482003089","2015-081L","41189","7011.613","97.383","654.062","612.894"
"GENERATED VIA SPACETRACK.ORG API","JSPOC","11238","COSMOS 1072","PAYLOAD","U","79003A","2016-01-11 20:52:35","788224","13.74107115","0.0038251","82.9421","144.5283","138.3018","21.2175","0","999","85446","2.5415e-05","4e-07","0","1979068","0 COSMOS 1072","1 11238U 79003A   16011.86985866  .00000040  00000-0  25415-4 0  9994","2 11238  82.9421 144.5283 0038251 138.3018  21.2175 13.74107115854468","1979-003A","11238","7362.999","104.795","1013.028","956.700"
"GENERATED VIA SPACETRACK.ORG API","JSPOC","25978","CLEMENTINE","PAYLOAD","U","99064B","2016-01-11 20:52:38","284320","14.95067205","0.0007917","98.258","193.9092","199.407","282.6428","0","999","13629","0.00017705","1.876e-05","0","1979502","0 CLEMENTINE","1 25978U 99064B   16011.86988755 +.00001876 +00000-0 +17705-3 0  9999","2 25978 098.2580 193.9092 0007917 199.4070 282.6428 14.95067205136294","1999-064B","25978","6960.301","96.316","587.676","576.655"
"GENERATED VIA SPACETRACK.ORG API","JSPOC","1584","COSMOS 86","PAYLOAD","U","65073A","2016-01-11 20:53:00","981600","12.51861137","0.021249","56.0594","24.6414","165.8063","261.3338","0","999","30042","-3.1456e-05","-1.02e-06","0","1979502","0 COSMOS 86","1  1584U 65073A   16011.87015025 -.00000102 +00000-0 -31456-4 0  9994","2  1584 056.0594 024.6414 0212490 165.8063 261.3338 12.51861137300427","1965-073A","1584","7834.856","115.028","1623.204","1290.239"
"GENERATED VIA SPACETRACK.ORG API","JSPOC","36287","BEIDOU 3","PAYLOAD","U","10001A","2016-01-11 20:53:21","702048","1.00277858","0.0004103","1.5661","7.9931","215.1534","340.9182","0","999","2197","0.0001","-2.83e-06","0","1979184","0 BEIDOU 3","1 36287U 10001A   16011.87039007 -.00000283  00000-0  10000-3 0  9999","2 36287   1.5661   7.9931 0004103 215.1534 340.9182  1.00277858 21979","2010-001A","36287","42163.029","1436.009","35802.194","35767.595"
